{
    "links": {
        "self": "http://www.neowsapp.com/rest/v1/neo/3132091?api_key=iIulBulltgU6a56xZRHN4H3l9WmuAYTsLGpBGhQ2"
    },
    "id": "3132091",
    "neo_reference_id": "3132091",
    "name": "(2002 OY21)",
    "designation": "2002 OY21",
    "nasa_jpl_url": "http://ssd.jpl.nasa.gov/sbdb.cgi?sstr=3132091",
    "absolute_magnitude_h": 20.7,
    "estimated_diameter": {
        "kilometers": {
            "estimated_diameter_min": 0.1925550782,
            "estimated_diameter_max": 0.4305662442
        },
        "meters": {
            "estimated_diameter_min": 192.5550781879,
            "estimated_diameter_max": 430.566244241
        },
        "miles": {
            "estimated_diameter_min": 0.1196481415,
            "estimated_diameter_max": 0.2675413778
        },
        "feet": {
            "estimated_diameter_min": 631.7424027221,
            "estimated_diameter_max": 1412.6189567557
        }
    },
    "is_potentially_hazardous_asteroid": false,
    "close_approach_data": [
        {
            "close_approach_date": "2002-08-13",
            "close_approach_date_full": "2002-Aug-13 15:05",
            "epoch_date_close_approach": 1029251100000,
            "relative_velocity": {
                "kilometers_per_second": "20.636070891",
                "kilometers_per_hour": "74289.8552076565",
                "miles_per_hour": "46160.826976113"
            },
            "miss_distance": {
                "astronomical": "0.0996329175",
                "lunar": "38.7572049075",
                "kilometers": "14904872.239885725",
                "miles": "9261458.150344005"
            },
            "orbiting_body": "Earth"
        },
        {
            "close_approach_date": "2007-04-06",
            "close_approach_date_full": "2007-Apr-06 13:53",
            "epoch_date_close_approach": 1175867580000,
            "relative_velocity": {
                "kilometers_per_second": "18.3438262191",
                "kilometers_per_hour": "66037.7743888266",
                "miles_per_hour": "41033.3048695462"
            },
            "miss_distance": {
                "astronomical": "0.0526030839",
                "lunar": "20.4625996371",
                "kilometers": "7869309.306871293",
                "miles": "4889762.0620101234"
            },
            "orbiting_body": "Mars"
        }
    ],
    "orbital_data": {
        "orbit_id": "14",
        "orbit_determination_date": "2017-04-06 09:15:00",
        "first_observation_date": "2002-07-29",
        "last_observation_date": "2002-08-13",
        "data_arc_in_days": 15,
        "observations_used": 46,
        "orbit_uncertainty": "8",
        "minimum_orbit_intersection": ".0861553",
        "jupiter_tisserand_invariant": "4.577",
        "epoch_osculation": "2452489.5",
        "eccentricity": ".6689144358273204",
        "semi_major_axis": "1.3546709967563",
        "inclination": "13.87224209488481",
        "ascending_node_longitude": "119.288214587555",
        "orbital_period": "575.9027813555583",
        "perihelion_distance": ".4485120112294259",
        "perihelion_argument": "314.2970630015598",
        "aphelion_distance": "2.260829982283175",
        "perihelion_time": "2452554.502271974538",
        "mean_anomaly": "319.3667218349721",
        "mean_motion": ".6251055067881996",
        "equinox": "J2000",
        "orbit_class": {
            "orbit_class_type": "APO",
            "orbit_class_description": "Near-Earth asteroid orbits which cross the Earth’s orbit similar to that of 1862 Apollo",
            "orbit_class_range": "a (semi-major axis) > 1.0 AU; q (perihelion) < 1.017 AU"
        }
    },
    "is_sentry_object": false
}